IXPE                    
1 49954U 21121A   24284.91668981  .00013224  00000+0  95177-3 0  9999
2 49954   0.2293 253.6469 0008958 202.3075 118.1040 15.00571287  5199
